ONEWEB-0043             
1 45149U 20008U   23250.93993144  .00010184  00000+0  29061-1 0  9999
2 45149  87.8823 237.4897 0001631 102.8867 257.2442 13.10479225175489
ONEWEB-0044             
1 45150U 20008V   23250.43418188  .00003208  00000+0  91463-2 0  9991
2 45150  87.8807 237.5884 0001594  99.2641 260.8667 13.10402341175717
ONEWEB-0045             
1 45151U 20008W   23250.94075148 -.00000346  00000+0 -10131-2 0  9998
2 45151  87.8757 222.3254 0002178  81.5430 278.5944 13.11414783177602
ONEWEB-0047             
1 45152U 20008X   23250.42622345  .00005942  00000+0  16964-1 0  9993
2 45152  87.8813 237.5908 0001870  87.3447 272.7895 13.10421676175438
ONEWEB-0048             
1 45153U 20008Y   23250.42142911  .00006820  00000+0  19469-1 0  9999
2 45153  87.8817 237.6021 0001914  83.8096 276.3249 13.10433004175802
ONEWEB-0049             
1 45154U 20008Z   23250.34666314  .00006685  00000+0  19085-1 0  9992
2 45154  87.8822 237.5853 0001569  81.9923 278.1382 13.10428432175251
ONEWEB-0051             
1 45155U 20008AA  23250.93862893 -.00000762  00000+0 -21859-2 0  9993
2 45155  87.8919 222.3495 0002127  80.1019 280.0349 13.11415164178281
ONEWEB-0052             
1 45156U 20008AB  23250.41983248  .00007202  00000+0  20561-1 0  9997
2 45156  87.8826 237.5542 0001066  84.3823 275.7426 13.10438480175177
